CCSDS_OMM_VERS = 2.0
CREATION_DATE  = 
ORIGINATOR     = 

OBJECT_NAME    = SL-14 R/B
OBJECT_ID      = 1986-046B
CENTER_NAME    = EARTH
REF_FRAME      = TEME
TIME_SYSTEM    = UTC
MEAN_ELEMENT_THEORY = SGP/SGP4

EPOCH          = 2025-12-28T04:58:23.946240
MEAN_MOTION    = 14.85502541
ECCENTRICITY   = .00245907
INCLINATION    = 82.4819
RA_OF_ASC_NODE = 147.7064
ARG_OF_PERICENTER = 103.5629
MEAN_ANOMALY   = 256.8329

EPHEMERIS_TYPE = 0
CLASSIFICATION_TYPE = U
NORAD_CAT_ID   = 16792
ELEMENT_SET_NO = 999
REV_AT_EPOCH   = 11579
BSTAR          = .84729446E-4
MEAN_MOTION_DOT = .76E-5
MEAN_MOTION_DDOT = 0

CCSDS_OMM_VERS = 2.0
CREATION_DATE  = 
ORIGINATOR     = 

OBJECT_NAME    = SL-14 R/B
OBJECT_ID      = 1986-055B
CENTER_NAME    = EARTH
REF_FRAME      = TEME
TIME_SYSTEM    = UTC
MEAN_ELEMENT_THEORY = SGP/SGP4

EPOCH          = 2025-12-28T00:29:06.297792
MEAN_MOTION    = 14.85546145
ECCENTRICITY   = .001823
INCLINATION    = 82.5192
RA_OF_ASC_NODE = 194.0138
ARG_OF_PERICENTER = 205.3820
MEAN_ANOMALY   = 308.4471

EPHEMERIS_TYPE = 0
CLASSIFICATION_TYPE = U
NORAD_CAT_ID   = 16882
ELEMENT_SET_NO = 999
REV_AT_EPOCH   = 10872
BSTAR          = .73032416E-4
MEAN_MOTION_DOT = .657E-5
MEAN_MOTION_DDOT = 0

CCSDS_OMM_VERS = 2.0
CREATION_DATE  = 
ORIGINATOR     = 

OBJECT_NAME    = AJISAI (EGS)
OBJECT_ID      = 1986-061A
CENTER_NAME    = EARTH
REF_FRAME      = TEME
TIME_SYSTEM    = UTC
MEAN_ELEMENT_THEORY = SGP/SGP4

EPOCH          = 2025-12-28T06:16:17.629824
MEAN_MOTION    = 12.44514462
ECCENTRICITY   = .00113186
INCLINATION    = 50.0112
RA_OF_ASC_NODE = 312.9899
ARG_OF_PERICENTER = 104.8497
MEAN_ANOMALY   = 49.7393

EPHEMERIS_TYPE = 0
CLASSIFICATION_TYPE = U
NORAD_CAT_ID   = 16908
ELEMENT_SET_NO = 999
REV_AT_EPOCH   = 45910
BSTAR          = .72984976E-4
MEAN_MOTION_DOT = -.87E-6
MEAN_MOTION_DDOT = 0

CCSDS_OMM_VERS = 2.0
CREATION_DATE  = 
ORIGINATOR     = 

OBJECT_NAME    = COSMOS 1812
OBJECT_ID      = 1987-003A
CENTER_NAME    = EARTH
REF_FRAME      = TEME
TIME_SYSTEM    = UTC
MEAN_ELEMENT_THEORY = SGP/SGP4

EPOCH          = 2025-12-28T05:05:51.794592
MEAN_MOTION    = 15.78858994
ECCENTRICITY   = .00060738
INCLINATION    = 82.4868
RA_OF_ASC_NODE = 275.2295
ARG_OF_PERICENTER = 65.1708
MEAN_ANOMALY   = 295.0189

EPHEMERIS_TYPE = 0
CLASSIFICATION_TYPE = U
NORAD_CAT_ID   = 17295
ELEMENT_SET_NO = 999
REV_AT_EPOCH   = 13309
BSTAR          = .79111366E-3
MEAN_MOTION_DOT = .141076E-2
MEAN_MOTION_DDOT = 0

CCSDS_OMM_VERS = 2.0
CREATION_DATE  = 
ORIGINATOR     = 

OBJECT_NAME    = SL-14 R/B
OBJECT_ID      = 1987-024B
CENTER_NAME    = EARTH
REF_FRAME      = TEME
TIME_SYSTEM    = UTC
MEAN_ELEMENT_THEORY = SGP/SGP4

EPOCH          = 2025-12-28T04:46:53.149728
MEAN_MOTION    = 14.86041596
ECCENTRICITY   = .00193282
INCLINATION    = 82.5281
RA_OF_ASC_NODE = 159.9316
ARG_OF_PERICENTER = 134.3394
MEAN_ANOMALY   = 225.9411

EPHEMERIS_TYPE = 0
CLASSIFICATION_TYPE = U
NORAD_CAT_ID   = 17567
ELEMENT_SET_NO = 999
REV_AT_EPOCH   = 7751
BSTAR          = .88587176E-4
MEAN_MOTION_DOT = .802E-5
MEAN_MOTION_DDOT = 0

CCSDS_OMM_VERS = 2.0
CREATION_DATE  = 
ORIGINATOR     = 

OBJECT_NAME    = COSMOS 1833
OBJECT_ID      = 1987-027A
CENTER_NAME    = EARTH
REF_FRAME      = TEME
TIME_SYSTEM    = UTC
MEAN_ELEMENT_THEORY = SGP/SGP4

EPOCH          = 2025-12-28T07:00:10.723392
MEAN_MOTION    = 14.13030372
ECCENTRICITY   = .00232654
INCLINATION    = 70.9170
RA_OF_ASC_NODE = 116.0854
ARG_OF_PERICENTER = 310.0826
MEAN_ANOMALY   = 49.8254

EPHEMERIS_TYPE = 0
CLASSIFICATION_TYPE = U
NORAD_CAT_ID   = 17589
ELEMENT_SET_NO = 999
REV_AT_EPOCH   = 23
BSTAR          = .19430632E-3
MEAN_MOTION_DOT = .315E-5
MEAN_MOTION_DDOT = 0

CCSDS_OMM_VERS = 2.0
CREATION_DATE  = 
ORIGINATOR     = 

OBJECT_NAME    = SL-16 R/B
OBJECT_ID      = 1987-027B
CENTER_NAME    = EARTH
REF_FRAME      = TEME
TIME_SYSTEM    = UTC
MEAN_ELEMENT_THEORY = SGP/SGP4

EPOCH          = 2025-12-28T06:15:13.913280
MEAN_MOTION    = 14.17156362
ECCENTRICITY   = .00071584
INCLINATION    = 71.0036
RA_OF_ASC_NODE = 67.0138
ARG_OF_PERICENTER = 243.4818
MEAN_ANOMALY   = 116.5573

EPHEMERIS_TYPE = 0
CLASSIFICATION_TYPE = U
NORAD_CAT_ID   = 17590
ELEMENT_SET_NO = 999
REV_AT_EPOCH   = 522
BSTAR          = -.63366468E-4
MEAN_MOTION_DOT = -.176E-5
MEAN_MOTION_DDOT = 0

CCSDS_OMM_VERS = 2.0
CREATION_DATE  = 
ORIGINATOR     = 

OBJECT_NAME    = SL-14 R/B
OBJECT_ID      = 1987-038B
CENTER_NAME    = EARTH
REF_FRAME      = TEME
TIME_SYSTEM    = UTC
MEAN_ELEMENT_THEORY = SGP/SGP4

EPOCH          = 2025-12-28T07:00:41.391072
MEAN_MOTION    = 14.85276780
ECCENTRICITY   = .00204096
INCLINATION    = 82.5009
RA_OF_ASC_NODE = 4.0506
ARG_OF_PERICENTER = 44.2093
MEAN_ANOMALY   = 316.0749

EPHEMERIS_TYPE = 0
CLASSIFICATION_TYPE = U
NORAD_CAT_ID   = 17912
ELEMENT_SET_NO = 999
REV_AT_EPOCH   = 6863
BSTAR          = .78522527E-4
MEAN_MOTION_DOT = .701E-5
MEAN_MOTION_DDOT = 0

CCSDS_OMM_VERS = 2.0
CREATION_DATE  = 
ORIGINATOR     = 

OBJECT_NAME    = COSMOS 1844
OBJECT_ID      = 1987-041A
CENTER_NAME    = EARTH
REF_FRAME      = TEME
TIME_SYSTEM    = UTC
MEAN_ELEMENT_THEORY = SGP/SGP4

EPOCH          = 2025-12-28T06:15:43.094880
MEAN_MOTION    = 14.14533981
ECCENTRICITY   = .0029345
INCLINATION    = 70.8972
RA_OF_ASC_NODE = 184.8341
ARG_OF_PERICENTER = 132.5340
MEAN_ANOMALY   = 227.8267

EPHEMERIS_TYPE = 0
CLASSIFICATION_TYPE = U
NORAD_CAT_ID   = 17973
ELEMENT_SET_NO = 999
REV_AT_EPOCH   = 99348
BSTAR          = .21054411E-3
MEAN_MOTION_DOT = .358E-5
MEAN_MOTION_DDOT = 0

CCSDS_OMM_VERS = 2.0
CREATION_DATE  = 
ORIGINATOR     = 

OBJECT_NAME    = SL-14 R/B
OBJECT_ID      = 1987-055B
CENTER_NAME    = EARTH
REF_FRAME      = TEME
TIME_SYSTEM    = UTC
MEAN_ELEMENT_THEORY = SGP/SGP4

EPOCH          = 2025-12-28T05:08:04.566336
MEAN_MOTION    = 14.85537484
ECCENTRICITY   = .00192581
INCLINATION    = 82.4988
RA_OF_ASC_NODE = 56.4044
ARG_OF_PERICENTER = 248.2936
MEAN_ANOMALY   = 111.6230

EPHEMERIS_TYPE = 0
CLASSIFICATION_TYPE = U
NORAD_CAT_ID   = 18153
ELEMENT_SET_NO = 999
REV_AT_EPOCH   = 5932
BSTAR          = .68921325E-4
MEAN_MOTION_DOT = .621E-5
MEAN_MOTION_DDOT = 0

CCSDS_OMM_VERS = 2.0
CREATION_DATE  = 
ORIGINATOR     = 

OBJECT_NAME    = COSMOS 1867
OBJECT_ID      = 1987-060A
CENTER_NAME    = EARTH
REF_FRAME      = TEME
TIME_SYSTEM    = UTC
MEAN_ELEMENT_THEORY = SGP/SGP4

EPOCH          = 2025-12-28T02:41:42.679392
MEAN_MOTION    = 14.31488758
ECCENTRICITY   = .00136953
INCLINATION    = 65.0093
RA_OF_ASC_NODE = 147.1529
ARG_OF_PERICENTER = 272.6280
MEAN_ANOMALY   = 87.3237

EPHEMERIS_TYPE = 0
CLASSIFICATION_TYPE = U
NORAD_CAT_ID   = 18187
ELEMENT_SET_NO = 999
REV_AT_EPOCH   = 969
BSTAR          = .50736676E-4
MEAN_MOTION_DOT = .35E-6
MEAN_MOTION_DDOT = 0

CCSDS_OMM_VERS = 2.0
CREATION_DATE  = 
ORIGINATOR     = 

OBJECT_NAME    = SL-14 R/B
OBJECT_ID      = 1988-001B
CENTER_NAME    = EARTH
REF_FRAME      = TEME
TIME_SYSTEM    = UTC
MEAN_ELEMENT_THEORY = SGP/SGP4

EPOCH          = 2025-12-28T04:54:35.616960
MEAN_MOTION    = 14.85440387
ECCENTRICITY   = .00195053
INCLINATION    = 82.5133
RA_OF_ASC_NODE = 262.6028
ARG_OF_PERICENTER = 112.7270
MEAN_ANOMALY   = 247.6010

EPHEMERIS_TYPE = 0
CLASSIFICATION_TYPE = U
NORAD_CAT_ID   = 18749
ELEMENT_SET_NO = 999
REV_AT_EPOCH   = 3141
BSTAR          = .70632747E-4
MEAN_MOTION_DOT = .635E-5
MEAN_MOTION_DDOT = 0

