SL-14 R/B               
1 16792U 86046B   25362.20722160  .00000760  00000+0  84729-4 0  9993
2 16792  82.4819 147.7064 0024590 103.5629 256.8329 14.85502541115797
SL-14 R/B               
1 16882U 86055B   25362.02021178  .00000657  00000+0  73032-4 0  9994
2 16882  82.5192 194.0138 0018230 205.3820 308.4471 14.85546145108722
AJISAI (EGS)            
1 16908U 86061A   25362.26131516 -.00000087  00000+0  72985-4 0  9998
2 16908  50.0112 312.9899 0011318 104.8497  49.7393 12.44514462459100
COSMOS 1812             
1 17295U 87003A   25362.21240503  .00141076  00000+0  79111-3 0  9997
2 17295  82.4868 275.2295 0006073  65.1708 295.0189 15.78858994133091
SL-14 R/B               
1 17567U 87024B   25362.19922627  .00000802  00000+0  88587-4 0  9992
2 17567  82.5281 159.9316 0019328 134.3394 225.9411 14.86041596 77516
COSMOS 1833             
1 17589U 87027A   25362.29179078  .00000315  00000+0  19431-3 0  9994
2 17589  70.9170 116.0854 0023265 310.0826  49.8254 14.13030372   230
SL-16 R/B               
1 17590U 87027B   25362.26057770 -.00000176  00000+0 -63366-4 0  9991
2 17590  71.0036  67.0138 0007158 243.4818 116.5573 14.17156362  5220
SL-14 R/B               
1 17912U 87038B   25362.29214573  .00000701  00000+0  78523-4 0  9993
2 17912  82.5009   4.0506 0020409  44.2093 316.0749 14.85276780 68639
COSMOS 1844             
1 17973U 87041A   25362.26091545  .00000358  00000+0  21054-3 0  9997
2 17973  70.8972 184.8341 0029345 132.5340 227.8267 14.14533981993488
SL-14 R/B               
1 18153U 87055B   25362.21394174  .00000621  00000+0  68921-4 0  9990
2 18153  82.4988  56.4044 0019258 248.2936 111.6230 14.85537484 59323
COSMOS 1867             
1 18187U 87060A   25362.11229953  .00000035  00000+0  50737-4 0  9999
2 18187  65.0093 147.1529 0013695 272.6280  87.3237 14.31488758  9693
SL-14 R/B               
1 18749U 88001B   25362.20457890  .00000635  00000+0  70633-4 0  9995
2 18749  82.5133 262.6028 0019505 112.7270 247.6010 14.85440387 31412
